{"type": "FeatureCollection", "features": [{"type": "Feature", "properties": {"norad_id": 26766, "name": "INTELSAT 10 (IS-10)", "group": "intelsat", "lat": -7.726444272575054, "lon": -55.688760890508796, "alt_km": 36093.72521229795, "timestamp": "2025-12-13T05:42:57.165586+00:00", "meta": {"OBJECT_NAME": "INTELSAT 10 (IS-10)", "OBJECT_ID": "2001-019A", "EPOCH": "2025-12-11T14:11:41.135712", "MEAN_MOTION": 0.99078808, "ECCENTRICITY": 0.00077853, "INCLINATION": 8.6274, "RA_OF_ASC_NODE": 61.1692, "ARG_OF_PERICENTER": 224.4537, "MEAN_ANOMALY": 151.554, "EPHEMERIS_TYPE": 0, "CLASSIFICATION_TYPE": "U", "NORAD_CAT_ID": 26766, "ELEMENT_SET_NO": 999, "REV_AT_EPOCH": 4372, "BSTAR": 0, "MEAN_MOTION_DOT": -2.86e-06, "MEAN_MOTION_DDOT": 0}, "tle": {"line1": "1 26766U 01019A   25345.59144833 -.00000286  00000+0  00000+0 0  9999", "line2": "2 26766   8.6274  61.1692 0007785 224.4537 151.5540  0.99078808 43721"}}, "geometry": {"type": "Point", "coordinates": [-55.688760890508796, -7.726444272575054]}}, {"type": "Feature", "properties": {"norad_id": 26900, "name": "INTELSAT 902 (IS-902)", "group": "intelsat", "lat": 3.9139266904105896, "lon": 117.64019436097605, "alt_km": 35800.21632832361, "timestamp": "2025-12-13T05:42:57.165611+00:00", "meta": {"OBJECT_NAME": "INTELSAT 902 (IS-902)", "OBJECT_ID": "2001-039A", "EPOCH": "2025-12-11T04:42:42.842016", "MEAN_MOTION": 1.00272526, "ECCENTRICITY": 0.00044264, "INCLINATION": 5.6424, "RA_OF_ASC_NODE": 74.0881, "ARG_OF_PERICENTER": 184.9809, "MEAN_ANOMALY": 201.6699, "EPHEMERIS_TYPE": 0, "CLASSIFICATION_TYPE": "U", "NORAD_CAT_ID": 26900, "ELEMENT_SET_NO": 999, "REV_AT_EPOCH": 8881, "BSTAR": 0, "MEAN_MOTION_DOT": -2.78e-06, "MEAN_MOTION_DDOT": 0}, "tle": {"line1": "1 26900U 01039A   25345.19632919 -.00000278  00000+0  00000+0 0  9995", "line2": "2 26900   5.6424  74.0881 0004426 184.9809 201.6699  1.00272526 88816"}}, "geometry": {"type": "Point", "coordinates": [117.64019436097605, 3.9139266904105896]}}, {"type": "Feature", "properties": {"norad_id": 27380, "name": "INTELSAT 904 (IS-904)", "group": "intelsat", "lat": 5.857896945165747, "lon": 136.2613504781825, "alt_km": 35791.18726622948, "timestamp": "2025-12-13T05:42:57.165627+00:00", "meta": {"OBJECT_NAME": "INTELSAT 904 (IS-904)", "OBJECT_ID": "2002-007A", "EPOCH": "2025-12-12T03:03:24.449184", "MEAN_MOTION": 1.002728, "ECCENTRICITY": 0.00015225, "INCLINATION": 6.4535, "RA_OF_ASC_NODE": 71.4393, "ARG_OF_PERICENTER": 225.8238, "MEAN_ANOMALY": 158.1601, "EPHEMERIS_TYPE": 0, "CLASSIFICATION_TYPE": "U", "NORAD_CAT_ID": 27380, "ELEMENT_SET_NO": 999, "REV_AT_EPOCH": 4989, "BSTAR": 0, "MEAN_MOTION_DOT": -2.17e-06, "MEAN_MOTION_DDOT": 0}, "tle": {"line1": "1 27380U 02007A   25346.12736631 -.00000217  00000+0  00000+0 0  9997", "line2": "2 27380   6.4535  71.4393 0001522 225.8238 158.1601  1.00272800 49894"}}, "geometry": {"type": "Point", "coordinates": [136.2613504781825, 5.857896945165747]}}, {"type": "Feature", "properties": {"norad_id": 27426, "name": "DIRECTV 5 (TEMPO 1)", "group": "intelsat", "lat": -1.474699694980838, "lon": 57.86016487576377, "alt_km": 35798.23324515276, "timestamp": "2025-12-13T05:42:57.165641+00:00", "meta": {"OBJECT_NAME": "DIRECTV 5 (TEMPO 1)", "OBJECT_ID": "2002-023A", "EPOCH": "2025-12-12T06:06:31.016160", "MEAN_MOTION": 1.00272024, "ECCENTRICITY": 0.00034777, "INCLINATION": 4.4013, "RA_OF_ASC_NODE": 77.6586, "ARG_OF_PERICENTER": 195.3534, "MEAN_ANOMALY": 149.6957, "EPHEMERIS_TYPE": 0, "CLASSIFICATION_TYPE": "U", "NORAD_CAT_ID": 27426, "ELEMENT_SET_NO": 999, "REV_AT_EPOCH": 8624, "BSTAR": 0, "MEAN_MOTION_DOT": -4.8e-07, "MEAN_MOTION_DDOT": 0}, "tle": {"line1": "1 27426U 02023A   25346.25452565 -.00000048  00000+0  00000+0 0  9993", "line2": "2 27426   4.4013  77.6586 0003477 195.3534 149.6957  1.00272024 86244"}}, "geometry": {"type": "Point", "coordinates": [57.86016487576377, -1.474699694980838]}}, {"type": "Feature", "properties": {"norad_id": 27438, "name": "INTELSAT 905 (IS-905)", "group": "intelsat", "lat": -4.132738053594423, "lon": 30.914166874270382, "alt_km": 35792.21177368395, "timestamp": "2025-12-13T05:42:57.165654+00:00", "meta": {"OBJECT_NAME": "INTELSAT 905 (IS-905)", "OBJECT_ID": "2002-027A", "EPOCH": "2025-12-12T02:04:38.528256", "MEAN_MOTION": 1.00273145, "ECCENTRICITY": 0.00027303, "INCLINATION": 6.2844, "RA_OF_ASC_NODE": 72.0639, "ARG_OF_PERICENTER": 196.9989, "MEAN_ANOMALY": 65.9362, "EPHEMERIS_TYPE": 0, "CLASSIFICATION_TYPE": "U", "NORAD_CAT_ID": 27438, "ELEMENT_SET_NO": 999, "REV_AT_EPOCH": 4948, "BSTAR": 0, "MEAN_MOTION_DOT": 1.02e-06, "MEAN_MOTION_DDOT": 0}, "tle": {"line1": "1 27438U 02027A   25346.08655704  .00000102  00000+0  00000+0 0  9991", "line2": "2 27438   6.2844  72.0639 0002730 196.9989  65.9362  1.00273145 49489"}}, "geometry": {"type": "Point", "coordinates": [30.914166874270382, -4.132738053594423]}}, {"type": "Feature", "properties": {"norad_id": 27445, "name": "GALAXY 3C (G-3C)", "group": "intelsat", "lat": -0.40488175098525686, "lon": 73.04078479134874, "alt_km": 35786.83230777501, "timestamp": "2025-12-13T05:42:57.165668+00:00", "meta": {"OBJECT_NAME": "GALAXY 3C (G-3C)", "OBJECT_ID": "2002-030A", "EPOCH": "2025-12-12T06:10:53.097600", "MEAN_MOTION": 1.00271461, "ECCENTRICITY": 0.00010934, "INCLINATION": 3.2633, "RA_OF_ASC_NODE": 80.5121, "ARG_OF_PERICENTER": 89.5592, "MEAN_ANOMALY": 268.9925, "EPHEMERIS_TYPE": 0, "CLASSIFICATION_TYPE": "U", "NORAD_CAT_ID": 27445, "ELEMENT_SET_NO": 999, "REV_AT_EPOCH": 4461, "BSTAR": 0, "MEAN_MOTION_DOT": -1.43e-06, "MEAN_MOTION_DDOT": 0}, "tle": {"line1": "1 27445U 02030A   25346.25755900 -.00000143  00000+0  00000+0 0  9997", "line2": "2 27445   3.2633  80.5121 0001093  89.5592 268.9925  1.00271461 44617"}}, "geometry": {"type": "Point", "coordinates": [73.04078479134874, -0.40488175098525686]}}, {"type": "Feature", "properties": {"norad_id": 27513, "name": "INTELSAT 906 (IS-906)", "group": "intelsat", "lat": 2.0818512948579126, "lon": -127.91117823430478, "alt_km": 35764.56820903846, "timestamp": "2025-12-13T05:42:57.165681+00:00", "meta": {"OBJECT_NAME": "INTELSAT 906 (IS-906)", "OBJECT_ID": "2002-041A", "EPOCH": "2025-12-12T05:13:28.596576", "MEAN_MOTION": 1.00271482, "ECCENTRICITY": 0.00061774, "INCLINATION": 5.3275, "RA_OF_ASC_NODE": 75.2375, "ARG_OF_PERICENTER": 192.3727, "MEAN_ANOMALY": 316.0559, "EPHEMERIS_TYPE": 0, "CLASSIFICATION_TYPE": "U", "NORAD_CAT_ID": 27513, "ELEMENT_SET_NO": 999, "REV_AT_EPOCH": 8515, "BSTAR": 0, "MEAN_MOTION_DOT": 2.2e-07, "MEAN_MOTION_DDOT": 0}, "tle": {"line1": "1 27513U 02041A   25346.21769209  .00000022  00000+0  00000+0 0  9993", "line2": "2 27513   5.3275  75.2375 0006177 192.3727 316.0559  1.00271482 85156"}}, "geometry": {"type": "Point", "coordinates": [-127.91117823430478, 2.0818512948579126]}}, {"type": "Feature", "properties": {"norad_id": 27954, "name": "GALAXY 13 (HORIZONS-1)", "group": "intelsat", "lat": -0.8585008165320733, "lon": 17.922400592321583, "alt_km": 35791.05834004453, "timestamp": "2025-12-13T05:42:57.165694+00:00", "meta": {"OBJECT_NAME": "GALAXY 13 (HORIZONS-1)", "OBJECT_ID": "2003-044A", "EPOCH": "2025-12-12T05:55:09.604416", "MEAN_MOTION": 1.00271326, "ECCENTRICITY": 0.00020458, "INCLINATION": 0.9343, "RA_OF_ASC_NODE": 86.4755, "ARG_OF_PERICENTER": 167.2764, "MEAN_ANOMALY": 126.2296, "EPHEMERIS_TYPE": 0, "CLASSIFICATION_TYPE": "U", "NORAD_CAT_ID": 27954, "ELEMENT_SET_NO": 999, "REV_AT_EPOCH": 4469, "BSTAR": 0, "MEAN_MOTION_DOT": 1.42e-06, "MEAN_MOTION_DDOT": 0}, "tle": {"line1": "1 27954U 03044A   25346.24663894  .00000142  00000+0  00000+0 0  9995", "line2": "2 27954   0.9343  86.4755 0002045 167.2764 126.2296  1.00271326 44690"}}, "geometry": {"type": "Point", "coordinates": [17.922400592321583, -0.8585008165320733]}}, {"type": "Feature", "properties": {"norad_id": 28358, "name": "INTELSAT 10-02", "group": "intelsat", "lat": 0.01646022482738129, "lon": 166.9287519812475, "alt_km": 35789.70473576985, "timestamp": "2025-12-13T05:42:57.165708+00:00", "meta": {"OBJECT_NAME": "INTELSAT 10-02", "OBJECT_ID": "2004-022A", "EPOCH": "2025-12-12T01:29:25.949760", "MEAN_MOTION": 1.00271277, "ECCENTRICITY": 0.00012166, "INCLINATION": 0.0234, "RA_OF_ASC_NODE": 65.5197, "ARG_OF_PERICENTER": 235.151, "MEAN_ANOMALY": 161.7375, "EPHEMERIS_TYPE": 0, "CLASSIFICATION_TYPE": "U", "NORAD_CAT_ID": 28358, "ELEMENT_SET_NO": 999, "REV_AT_EPOCH": 7868, "BSTAR": 0, "MEAN_MOTION_DOT": -2e-08, "MEAN_MOTION_DDOT": 0}, "tle": {"line1": "1 28358U 04022A   25346.06210590 -.00000002  00000+0  00000+0 0  9998", "line2": "2 28358   0.0234  65.5197 0001216 235.1510 161.7375  1.00271277 78683"}}, "geometry": {"type": "Point", "coordinates": [166.9287519812475, 0.01646022482738129]}}, {"type": "Feature", "properties": {"norad_id": 28626, "name": "XM-3 (RHYTHM)", "group": "intelsat", "lat": -0.07171660271330096, "lon": -80.1556520926622, "alt_km": 36158.06738242101, "timestamp": "2025-12-13T05:42:57.165720+00:00", "meta": {"OBJECT_NAME": "XM-3 (RHYTHM)", "OBJECT_ID": "2005-008A", "EPOCH": "2025-12-12T02:03:00.235296", "MEAN_MOTION": 0.98952726, "ECCENTRICITY": 0.0001522, "INCLINATION": 0.1732, "RA_OF_ASC_NODE": 81.4641, "ARG_OF_PERICENTER": 269.4596, "MEAN_ANOMALY": 238.2962, "EPHEMERIS_TYPE": 0, "CLASSIFICATION_TYPE": "U", "NORAD_CAT_ID": 28626, "ELEMENT_SET_NO": 999, "REV_AT_EPOCH": 4074, "BSTAR": 0, "MEAN_MOTION_DOT": -1.71e-06, "MEAN_MOTION_DDOT": 0}, "tle": {"line1": "1 28626U 05008A   25346.08541939 -.00000171  00000+0  00000+0 0  9994", "line2": "2 28626   0.1732  81.4641 0001522 269.4596 238.2962  0.98952726 40749"}}, "geometry": {"type": "Point", "coordinates": [-80.1556520926622, -0.07171660271330096]}}]}